{"fetched_at":"2026-03-27T07:04:08Z","count":10282,"tles":[{"name":"SL-14 R/B","line1":"1 17912U 87038B   26085.54219350  .00000452  00000+0  49505-4 0  9993","line2":"2 17912  82.4978 280.9277 0020708 107.6614 252.6866 14.85383726 81738","category":"Other"},{"name":"SL-14 R/B","line1":"1 18749U 88001B   26085.31053612  .00000482  00000+0  52827-4 0  9999","line2":"2 18749  82.5162 179.7326 0018117 178.6706 181.4561 14.85545719 44499","category":"Other"},{"name":"COSMOS 1844","line1":"1 17973U 87041A   26085.51317695  .00000320  00000+0  19077-3 0  9996","line2":"2 17973  70.9013 358.6917 0030900 353.3514   6.7193 14.14554711  5963","category":"Other"},{"name":"SL-14 R/B","line1":"1 18153U 87055B   26085.11197072  .00000423  00000+0  45893-4 0  9993","line2":"2 18153  82.5012 333.5567 0019698 322.9634  37.0221 14.85645523 72379","category":"Other"},{"name":"SL-14 R/B","line1":"1 16792U 86046B   26085.37659282  .00000491  00000+0  53675-4 0  9995","line2":"2 16792  82.4798  64.4102 0023339 169.0401 191.1329 14.85605893128885","category":"Other"},{"name":"SL-14 R/B","line1":"1 17567U 87024B   26085.40390806  .00000488  00000+0  52728-4 0  9995","line2":"2 17567  82.5250  77.0491 0017592 200.7194 159.3312 14.86147446 90610","category":"Other"},{"name":"SL-14 R/B","line1":"1 16882U 86055B   26085.44929134  .00000433  00000+0  47073-4 0  9990","line2":"2 16882  82.5173 110.9177 0017314 277.3750 199.4452 14.85656958121854","category":"Other"},{"name":"COSMOS 1833","line1":"1 17589U 87027A   26085.28350558 -.00000279  00000+0 -12309-3 0  9998","line2":"2 17589  70.9176 291.1414 0023399 190.2449 169.8199 14.13048683 12665","category":"Other"},{"name":"AJISAI (EGS)","line1":"1 16908U 86061A   26085.50805737 -.00000100  00000+0 -20235-4 0  9999","line2":"2 16908  50.0107  41.6295 0011329 330.3501 136.7077 12.44515624470092","category":"Other"},{"name":"SL-16 R/B","line1":"1 17590U 87027B   26085.49138050 -.00000164  00000+0 -57704-4 0  9996","line2":"2 17590  71.0012 241.0860 0002851 102.0120 258.1323 14.17165781 17720","category":"Other"},{"name":"COSMOS 1933","line1":"1 18958U 88020A   26085.40080950  .00004199  00000+0  20426-3 0  9995","line2":"2 18958  82.5120 234.3737 0005104 131.8407 228.3263 15.18137863 52763","category":"Other"},{"name":"COSMOS 1867","line1":"1 18187U 87060A   26085.48747413 -.00000016  00000+0  31751-4 0  9993","line2":"2 18187  65.0090 259.6607 0014766 279.6396  80.3020 14.31505508 22344","category":"Other"}]}